KUIPER-00061            
1 64521U 25134X   25220.92464244  .00027171  00000+0  77242-3 0  9991
2 64521  51.8742 106.9278 0005158 273.1833  86.8563 15.35949103  8370
KUIPER-00062            
1 64522U 25134Y   25220.91667824 -.00023517  00000+0 -95131-3 0  9999
2 64522  51.8784 107.5185 0006360 269.8759 163.0378 15.23824465  7917
KUIPER-00063            
1 64523U 25134Z   25220.91667824  .00002392  00000+0  99785-4 0  9996
2 64523  51.8777 106.9634 0003360 227.3842  93.1211 15.27740676  7915
KUIPER-00064            
1 64524U 25134AA  25220.91667824 -.01012029  00000+0 -35396-1 0  9993
2 64524  51.8791 106.6701 0001175 333.8418 144.5050 15.31668126  8229
KUIPER-00065            
1 64525U 25134AB  25220.91667824 -.00027816  00000+0 -13101-2 0  9994
2 64525  51.8817 107.8752 0008047 282.3665 264.6074 15.18747324  8149
KUIPER-00066            
1 64526U 25134AC  25220.91667824 -.00595853  00000+0 -20804-1 0  9993
2 64526  51.8789 106.6969 0001081 211.4945 238.5376 15.31232036  7924
KUIPER-00069            
1 64816U 25151A   25220.88909856  .00018224  00000+0  52303-3 0  9995
2 64816  51.8777 173.6867 0005131 218.8409 141.2209 15.35903151  4806
KUIPER-00070            
1 64817U 25151B   25220.91667824 -.00801613  00000+0 -34128-1 0  9993
2 64817  51.8840 174.1520 0006180 253.9717 343.1190 15.25059051  3594
