<?xml version="1.0" encoding="UTF-8"?>
<ndm xmlns:xsi="http://www.w3.org/2001/XMLSchema-instance" xsi:noNamespaceSchemaLocation="https://sanaregistry.org/r/ndmxml_unqualified/ndmxml-2.0.0-master-2.0.xsd">
<omm id="CCSDS_OMM_VERS" version="2.0">
<header><CREATION_DATE/><ORIGINATOR/></header><body><segment><metadata><OBJECT_NAME>KUIPER-00061</OBJECT_NAME><OBJECT_ID>2025-134X</OBJECT_ID><CENTER_NAME>EARTH</CENTER_NAME><REF_FRAME>TEME</REF_FRAME><TIME_SYSTEM>UTC</TIME_SYSTEM><MEAN_ELEMENT_THEORY>SGP4</MEAN_ELEMENT_THEORY></metadata><data><meanElements><EPOCH>2025-08-08T22:11:29.106816</EPOCH><MEAN_MOTION>15.35949103</MEAN_MOTION><ECCENTRICITY>.0005158</ECCENTRICITY><INCLINATION>51.8742</INCLINATION><RA_OF_ASC_NODE>106.9278</RA_OF_ASC_NODE><ARG_OF_PERICENTER>273.1833</ARG_OF_PERICENTER><MEAN_ANOMALY>86.8563</MEAN_ANOMALY></meanElements><tleParameters><EPHEMERIS_TYPE>0</EPHEMERIS_TYPE><CLASSIFICATION_TYPE>U</CLASSIFICATION_TYPE><NORAD_CAT_ID>64521</NORAD_CAT_ID><ELEMENT_SET_NO>999</ELEMENT_SET_NO><REV_AT_EPOCH>837</REV_AT_EPOCH><BSTAR>.77242E-3</BSTAR><MEAN_MOTION_DOT>.27171E-3</MEAN_MOTION_DOT><MEAN_MOTION_DDOT>0</MEAN_MOTION_DDOT></tleParameters></data></segment></body></omm>
<omm id="CCSDS_OMM_VERS" version="2.0">
<header><CREATION_DATE/><ORIGINATOR/></header><body><segment><metadata><OBJECT_NAME>KUIPER-00062</OBJECT_NAME><OBJECT_ID>2025-134Y</OBJECT_ID><CENTER_NAME>EARTH</CENTER_NAME><REF_FRAME>TEME</REF_FRAME><TIME_SYSTEM>UTC</TIME_SYSTEM><MEAN_ELEMENT_THEORY>SGP4</MEAN_ELEMENT_THEORY></metadata><data><meanElements><EPOCH>2025-08-08T22:00:00.999936</EPOCH><MEAN_MOTION>15.23824465</MEAN_MOTION><ECCENTRICITY>.000636</ECCENTRICITY><INCLINATION>51.8784</INCLINATION><RA_OF_ASC_NODE>107.5185</RA_OF_ASC_NODE><ARG_OF_PERICENTER>269.8759</ARG_OF_PERICENTER><MEAN_ANOMALY>163.0378</MEAN_ANOMALY></meanElements><tleParameters><EPHEMERIS_TYPE>0</EPHEMERIS_TYPE><CLASSIFICATION_TYPE>U</CLASSIFICATION_TYPE><NORAD_CAT_ID>64522</NORAD_CAT_ID><ELEMENT_SET_NO>999</ELEMENT_SET_NO><REV_AT_EPOCH>791</REV_AT_EPOCH><BSTAR>-.95131E-3</BSTAR><MEAN_MOTION_DOT>-.23517E-3</MEAN_MOTION_DOT><MEAN_MOTION_DDOT>0</MEAN_MOTION_DDOT></tleParameters></data></segment></body></omm>
<omm id="CCSDS_OMM_VERS" version="2.0">
<header><CREATION_DATE/><ORIGINATOR/></header><body><segment><metadata><OBJECT_NAME>KUIPER-00063</OBJECT_NAME><OBJECT_ID>2025-134Z</OBJECT_ID><CENTER_NAME>EARTH</CENTER_NAME><REF_FRAME>TEME</REF_FRAME><TIME_SYSTEM>UTC</TIME_SYSTEM><MEAN_ELEMENT_THEORY>SGP4</MEAN_ELEMENT_THEORY></metadata><data><meanElements><EPOCH>2025-08-08T22:00:00.999936</EPOCH><MEAN_MOTION>15.27740676</MEAN_MOTION><ECCENTRICITY>.000336</ECCENTRICITY><INCLINATION>51.8777</INCLINATION><RA_OF_ASC_NODE>106.9634</RA_OF_ASC_NODE><ARG_OF_PERICENTER>227.3842</ARG_OF_PERICENTER><MEAN_ANOMALY>93.1211</MEAN_ANOMALY></meanElements><tleParameters><EPHEMERIS_TYPE>0</EPHEMERIS_TYPE><CLASSIFICATION_TYPE>U</CLASSIFICATION_TYPE><NORAD_CAT_ID>64523</NORAD_CAT_ID><ELEMENT_SET_NO>999</ELEMENT_SET_NO><REV_AT_EPOCH>791</REV_AT_EPOCH><BSTAR>.99785E-4</BSTAR><MEAN_MOTION_DOT>.2392E-4</MEAN_MOTION_DOT><MEAN_MOTION_DDOT>0</MEAN_MOTION_DDOT></tleParameters></data></segment></body></omm>
<omm id="CCSDS_OMM_VERS" version="2.0">
<header><CREATION_DATE/><ORIGINATOR/></header><body><segment><metadata><OBJECT_NAME>KUIPER-00064</OBJECT_NAME><OBJECT_ID>2025-134AA</OBJECT_ID><CENTER_NAME>EARTH</CENTER_NAME><REF_FRAME>TEME</REF_FRAME><TIME_SYSTEM>UTC</TIME_SYSTEM><MEAN_ELEMENT_THEORY>SGP4</MEAN_ELEMENT_THEORY></metadata><data><meanElements><EPOCH>2025-08-08T22:00:00.999936</EPOCH><MEAN_MOTION>15.31668126</MEAN_MOTION><ECCENTRICITY>.0001175</ECCENTRICITY><INCLINATION>51.8791</INCLINATION><RA_OF_ASC_NODE>106.6701</RA_OF_ASC_NODE><ARG_OF_PERICENTER>333.8418</ARG_OF_PERICENTER><MEAN_ANOMALY>144.5050</MEAN_ANOMALY></meanElements><tleParameters><EPHEMERIS_TYPE>0</EPHEMERIS_TYPE><CLASSIFICATION_TYPE>U</CLASSIFICATION_TYPE><NORAD_CAT_ID>64524</NORAD_CAT_ID><ELEMENT_SET_NO>999</ELEMENT_SET_NO><REV_AT_EPOCH>822</REV_AT_EPOCH><BSTAR>-.35396E-1</BSTAR><MEAN_MOTION_DOT>-.1012029E-1</MEAN_MOTION_DOT><MEAN_MOTION_DDOT>0</MEAN_MOTION_DDOT></tleParameters></data></segment></body></omm>
<omm id="CCSDS_OMM_VERS" version="2.0">
<header><CREATION_DATE/><ORIGINATOR/></header><body><segment><metadata><OBJECT_NAME>KUIPER-00065</OBJECT_NAME><OBJECT_ID>2025-134AB</OBJECT_ID><CENTER_NAME>EARTH</CENTER_NAME><REF_FRAME>TEME</REF_FRAME><TIME_SYSTEM>UTC</TIME_SYSTEM><MEAN_ELEMENT_THEORY>SGP4</MEAN_ELEMENT_THEORY></metadata><data><meanElements><EPOCH>2025-08-08T22:00:00.999936</EPOCH><MEAN_MOTION>15.18747324</MEAN_MOTION><ECCENTRICITY>.0008047</ECCENTRICITY><INCLINATION>51.8817</INCLINATION><RA_OF_ASC_NODE>107.8752</RA_OF_ASC_NODE><ARG_OF_PERICENTER>282.3665</ARG_OF_PERICENTER><MEAN_ANOMALY>264.6074</MEAN_ANOMALY></meanElements><tleParameters><EPHEMERIS_TYPE>0</EPHEMERIS_TYPE><CLASSIFICATION_TYPE>U</CLASSIFICATION_TYPE><NORAD_CAT_ID>64525</NORAD_CAT_ID><ELEMENT_SET_NO>999</ELEMENT_SET_NO><REV_AT_EPOCH>814</REV_AT_EPOCH><BSTAR>-.13101E-2</BSTAR><MEAN_MOTION_DOT>-.27816E-3</MEAN_MOTION_DOT><MEAN_MOTION_DDOT>0</MEAN_MOTION_DDOT></tleParameters></data></segment></body></omm>
<omm id="CCSDS_OMM_VERS" version="2.0">
<header><CREATION_DATE/><ORIGINATOR/></header><body><segment><metadata><OBJECT_NAME>KUIPER-00066</OBJECT_NAME><OBJECT_ID>2025-134AC</OBJECT_ID><CENTER_NAME>EARTH</CENTER_NAME><REF_FRAME>TEME</REF_FRAME><TIME_SYSTEM>UTC</TIME_SYSTEM><MEAN_ELEMENT_THEORY>SGP4</MEAN_ELEMENT_THEORY></metadata><data><meanElements><EPOCH>2025-08-08T22:00:00.999936</EPOCH><MEAN_MOTION>15.31232036</MEAN_MOTION><ECCENTRICITY>.0001081</ECCENTRICITY><INCLINATION>51.8789</INCLINATION><RA_OF_ASC_NODE>106.6969</RA_OF_ASC_NODE><ARG_OF_PERICENTER>211.4945</ARG_OF_PERICENTER><MEAN_ANOMALY>238.5376</MEAN_ANOMALY></meanElements><tleParameters><EPHEMERIS_TYPE>0</EPHEMERIS_TYPE><CLASSIFICATION_TYPE>U</CLASSIFICATION_TYPE><NORAD_CAT_ID>64526</NORAD_CAT_ID><ELEMENT_SET_NO>999</ELEMENT_SET_NO><REV_AT_EPOCH>792</REV_AT_EPOCH><BSTAR>-.20804E-1</BSTAR><MEAN_MOTION_DOT>-.595853E-2</MEAN_MOTION_DOT><MEAN_MOTION_DDOT>0</MEAN_MOTION_DDOT></tleParameters></data></segment></body></omm>
<omm id="CCSDS_OMM_VERS" version="2.0">
<header><CREATION_DATE/><ORIGINATOR/></header><body><segment><metadata><OBJECT_NAME>KUIPER-00069</OBJECT_NAME><OBJECT_ID>2025-151A</OBJECT_ID><CENTER_NAME>EARTH</CENTER_NAME><REF_FRAME>TEME</REF_FRAME><TIME_SYSTEM>UTC</TIME_SYSTEM><MEAN_ELEMENT_THEORY>SGP4</MEAN_ELEMENT_THEORY></metadata><data><meanElements><EPOCH>2025-08-08T21:20:18.115584</EPOCH><MEAN_MOTION>15.35903151</MEAN_MOTION><ECCENTRICITY>.0005131</ECCENTRICITY><INCLINATION>51.8777</INCLINATION><RA_OF_ASC_NODE>173.6867</RA_OF_ASC_NODE><ARG_OF_PERICENTER>218.8409</ARG_OF_PERICENTER><MEAN_ANOMALY>141.2209</MEAN_ANOMALY></meanElements><tleParameters><EPHEMERIS_TYPE>0</EPHEMERIS_TYPE><CLASSIFICATION_TYPE>U</CLASSIFICATION_TYPE><NORAD_CAT_ID>64816</NORAD_CAT_ID><ELEMENT_SET_NO>999</ELEMENT_SET_NO><REV_AT_EPOCH>480</REV_AT_EPOCH><BSTAR>.52303E-3</BSTAR><MEAN_MOTION_DOT>.18224E-3</MEAN_MOTION_DOT><MEAN_MOTION_DDOT>0</MEAN_MOTION_DDOT></tleParameters></data></segment></body></omm>
<omm id="CCSDS_OMM_VERS" version="2.0">
<header><CREATION_DATE/><ORIGINATOR/></header><body><segment><metadata><OBJECT_NAME>KUIPER-00070</OBJECT_NAME><OBJECT_ID>2025-151B</OBJECT_ID><CENTER_NAME>EARTH</CENTER_NAME><REF_FRAME>TEME</REF_FRAME><TIME_SYSTEM>UTC</TIME_SYSTEM><MEAN_ELEMENT_THEORY>SGP4</MEAN_ELEMENT_THEORY></metadata><data><meanElements><EPOCH>2025-08-08T22:00:00.999936</EPOCH><MEAN_MOTION>15.25059051</MEAN_MOTION><ECCENTRICITY>.000618</ECCENTRICITY><INCLINATION>51.8840</INCLINATION><RA_OF_ASC_NODE>174.1520</RA_OF_ASC_NODE><ARG_OF_PERICENTER>253.9717</ARG_OF_PERICENTER><MEAN_ANOMALY>343.1190</MEAN_ANOMALY></meanElements><tleParameters><EPHEMERIS_TYPE>0</EPHEMERIS_TYPE><CLASSIFICATION_TYPE>U</CLASSIFICATION_TYPE><NORAD_CAT_ID>64817</NORAD_CAT_ID><ELEMENT_SET_NO>999</ELEMENT_SET_NO><REV_AT_EPOCH>359</REV_AT_EPOCH><BSTAR>-.34128E-1</BSTAR><MEAN_MOTION_DOT>-.801613E-2</MEAN_MOTION_DOT><MEAN_MOTION_DDOT>0</MEAN_MOTION_DDOT></tleParameters></data></segment></body></omm>

</ndm>
